NAVSTAR 77 (USA 289)    
1 43873U 18109A   24103.26874071  .00000019  00000+0  00000+0 0  9997
2 43873  55.2706 123.6309 0028541 195.7501 159.2474  2.00552956 39103
